[
    {
        "OBJECT_NAME": "BEIDOU-2 G7",
        "OBJECT_ID": "2016-037A",
        "EPOCH": "2026-06-21T13:18:26.221824",
        "MEAN_MOTION": 1.00274439,
        "ECCENTRICITY": 0.0006521,
        "INCLINATION": 1.732,
        "RA_OF_ASC_NODE": 69.3648,
        "ARG_OF_PERICENTER": 358.244,
        "MEAN_ANOMALY": 152.264,
        "EPHEMERIS_TYPE": 0,
        "CLASSIFICATION_TYPE": "U",
        "NORAD_CAT_ID": 41586,
        "ELEMENT_SET_NO": 999,
        "REV_AT_EPOCH": 693,
        "BSTAR": 0,
        "MEAN_MOTION_DOT": -3.55e-06,
        "MEAN_MOTION_DDOT": 0
    },
    {
        "OBJECT_NAME": "BEIDOU-3 M1",
        "OBJECT_ID": "2017-069A",
        "EPOCH": "2026-06-20T21:24:05.911776",
        "MEAN_MOTION": 1.86231151,
        "ECCENTRICITY": 0.0010382,
        "INCLINATION": 56.696,
        "RA_OF_ASC_NODE": 62.962,
        "ARG_OF_PERICENTER": 325.8146,
        "MEAN_ANOMALY": 34.1572,
        "EPHEMERIS_TYPE": 0,
        "CLASSIFICATION_TYPE": "U",
        "NORAD_CAT_ID": 43001,
        "ELEMENT_SET_NO": 999,
        "REV_AT_EPOCH": 5867,
        "BSTAR": 0,
        "MEAN_MOTION_DOT": -7.7e-07,
        "MEAN_MOTION_DDOT": 0
    },
    {
        "OBJECT_NAME": "BEIDOU-3 M2",
        "OBJECT_ID": "2017-069B",
        "EPOCH": "2026-06-19T18:09:29.157408",
        "MEAN_MOTION": 1.86230559,
        "ECCENTRICITY": 0.00091099,
        "INCLINATION": 56.6931,
        "RA_OF_ASC_NODE": 63.0362,
        "ARG_OF_PERICENTER": 351.9115,
        "MEAN_ANOMALY": 8.1147,
        "EPHEMERIS_TYPE": 0,
        "CLASSIFICATION_TYPE": "U",
        "NORAD_CAT_ID": 43002,
        "ELEMENT_SET_NO": 999,
        "REV_AT_EPOCH": 5864,
        "BSTAR": 0,
        "MEAN_MOTION_DOT": -6.6e-07,
        "MEAN_MOTION_DDOT": 0
    },
    {
        "OBJECT_NAME": "BEIDOU-3 M7",
        "OBJECT_ID": "2018-003A",
        "EPOCH": "2026-06-20T00:50:53.428704",
        "MEAN_MOTION": 1.8622789,
        "ECCENTRICITY": 0.00048518,
        "INCLINATION": 54.3254,
        "RA_OF_ASC_NODE": 302.2159,
        "ARG_OF_PERICENTER": 94.5867,
        "MEAN_ANOMALY": 265.4639,
        "EPHEMERIS_TYPE": 0,
        "CLASSIFICATION_TYPE": "U",
        "NORAD_CAT_ID": 43107,
        "ELEMENT_SET_NO": 999,
        "REV_AT_EPOCH": 5740,
        "BSTAR": 0,
        "MEAN_MOTION_DOT": -8.9e-07,
        "MEAN_MOTION_DDOT": 0
    },
    {
        "OBJECT_NAME": "BEIDOU-3 M8",
        "OBJECT_ID": "2018-003B",
        "EPOCH": "2026-06-20T12:24:29.623392",
        "MEAN_MOTION": 1.8623103,
        "ECCENTRICITY": 0.0002615,
        "INCLINATION": 54.3172,
        "RA_OF_ASC_NODE": 302.1809,
        "ARG_OF_PERICENTER": 260.433,
        "MEAN_ANOMALY": 99.5328,
        "EPHEMERIS_TYPE": 0,
        "CLASSIFICATION_TYPE": "U",
        "NORAD_CAT_ID": 43108,
        "ELEMENT_SET_NO": 999,
        "REV_AT_EPOCH": 5742,
        "BSTAR": 0,
        "MEAN_MOTION_DOT": -9.3e-07,
        "MEAN_MOTION_DDOT": 0
    },
    {
        "OBJECT_NAME": "BEIDOU-3 M4",
        "OBJECT_ID": "2018-018A",
        "EPOCH": "2026-06-20T23:02:26.287008",
        "MEAN_MOTION": 1.86230959,
        "ECCENTRICITY": 0.0007674,
        "INCLINATION": 56.6545,
        "RA_OF_ASC_NODE": 63.0234,
        "ARG_OF_PERICENTER": 20.2662,
        "MEAN_ANOMALY": 339.8025,
        "EPHEMERIS_TYPE": 0,
        "CLASSIFICATION_TYPE": "U",
        "NORAD_CAT_ID": 43207,
        "ELEMENT_SET_NO": 999,
        "REV_AT_EPOCH": 5681,
        "BSTAR": 0,
        "MEAN_MOTION_DOT": -7.8e-07,
        "MEAN_MOTION_DDOT": 0
    },
    {
        "OBJECT_NAME": "BEIDOU-3 M3",
        "OBJECT_ID": "2018-018B",
        "EPOCH": "2026-06-21T00:38:10.476960",
        "MEAN_MOTION": 1.86231037,
        "ECCENTRICITY": 0.0008507,
        "INCLINATION": 56.6539,
        "RA_OF_ASC_NODE": 63.0252,
        "ARG_OF_PERICENTER": 342.499,
        "MEAN_ANOMALY": 17.5099,
        "EPHEMERIS_TYPE": 0,
        "CLASSIFICATION_TYPE": "U",
        "NORAD_CAT_ID": 43208,
        "ELEMENT_SET_NO": 999,
        "REV_AT_EPOCH": 5681,
        "BSTAR": 0,
        "MEAN_MOTION_DOT": -7.8e-07,
        "MEAN_MOTION_DDOT": 0
    },
    {
        "OBJECT_NAME": "BEIDOU-3 M9",
        "OBJECT_ID": "2018-029A",
        "EPOCH": "2026-06-20T04:05:25.782720",
        "MEAN_MOTION": 1.86227999,
        "ECCENTRICITY": 9.987e-05,
        "INCLINATION": 54.1908,
        "RA_OF_ASC_NODE": 299.8436,
        "ARG_OF_PERICENTER": 153.7677,
        "MEAN_ANOMALY": 206.2347,
        "EPHEMERIS_TYPE": 0,
        "CLASSIFICATION_TYPE": "U",
        "NORAD_CAT_ID": 43245,
        "ELEMENT_SET_NO": 999,
        "REV_AT_EPOCH": 5595,
        "BSTAR": 0,
        "MEAN_MOTION_DOT": -8.9e-07,
        "MEAN_MOTION_DDOT": 0
    },
    {
        "OBJECT_NAME": "BEIDOU-3 M10",
        "OBJECT_ID": "2018-029B",
        "EPOCH": "2026-06-19T00:44:26.693664",
        "MEAN_MOTION": 1.86229038,
        "ECCENTRICITY": 0.00037818,
        "INCLINATION": 54.1899,
        "RA_OF_ASC_NODE": 299.9108,
        "ARG_OF_PERICENTER": 40.0504,
        "MEAN_ANOMALY": 319.9737,
        "EPHEMERIS_TYPE": 0,
        "CLASSIFICATION_TYPE": "U",
        "NORAD_CAT_ID": 43246,
        "ELEMENT_SET_NO": 999,
        "REV_AT_EPOCH": 5591,
        "BSTAR": 0,
        "MEAN_MOTION_DOT": -8e-07,
        "MEAN_MOTION_DDOT": 0
    },
    {
        "OBJECT_NAME": "BEIDOU-2 IGSO-7",
        "OBJECT_ID": "2018-057A",
        "EPOCH": "2026-06-20T22:01:56.983296",
        "MEAN_MOTION": 1.00249965,
        "ECCENTRICITY": 0.0104976,
        "INCLINATION": 55.196,
        "RA_OF_ASC_NODE": 163.024,
        "ARG_OF_PERICENTER": 238.0113,
        "MEAN_ANOMALY": 308.2121,
        "EPHEMERIS_TYPE": 0,
        "CLASSIFICATION_TYPE": "U",
        "NORAD_CAT_ID": 43539,
        "ELEMENT_SET_NO": 999,
        "REV_AT_EPOCH": 2916,
        "BSTAR": 0,
        "MEAN_MOTION_DOT": -2.3e-07,
        "MEAN_MOTION_DDOT": 0
    },
    {
        "OBJECT_NAME": "BEIDOU-3 M5",
        "OBJECT_ID": "2018-062A",
        "EPOCH": "2026-06-20T07:53:29.317920",
        "MEAN_MOTION": 1.86228559,
        "ECCENTRICITY": 0.0005659,
        "INCLINATION": 54.0851,
        "RA_OF_ASC_NODE": 182.1963,
        "ARG_OF_PERICENTER": 290.1184,
        "MEAN_ANOMALY": 69.8429,
        "EPHEMERIS_TYPE": 0,
        "CLASSIFICATION_TYPE": "U",
        "NORAD_CAT_ID": 43581,
        "ELEMENT_SET_NO": 999,
        "REV_AT_EPOCH": 5369,
        "BSTAR": 0,
        "MEAN_MOTION_DOT": 6.8e-07,
        "MEAN_MOTION_DDOT": 0
    },
    {
        "OBJECT_NAME": "BEIDOU-3 M6",
        "OBJECT_ID": "2018-062B",
        "EPOCH": "2026-06-20T04:36:54.550656",
        "MEAN_MOTION": 1.86227785,
        "ECCENTRICITY": 0.0005006,
        "INCLINATION": 54.0852,
        "RA_OF_ASC_NODE": 182.1905,
        "ARG_OF_PERICENTER": 8.6086,
        "MEAN_ANOMALY": 351.422,
        "EPHEMERIS_TYPE": 0,
        "CLASSIFICATION_TYPE": "U",
        "NORAD_CAT_ID": 43582,
        "ELEMENT_SET_NO": 999,
        "REV_AT_EPOCH": 5369,
        "BSTAR": 0,
        "MEAN_MOTION_DOT": 6.6e-07,
        "MEAN_MOTION_DDOT": 0
    },
    {
        "OBJECT_NAME": "BEIDOU-3 M12",
        "OBJECT_ID": "2018-067A",
        "EPOCH": "2026-06-21T04:54:39.987072",
        "MEAN_MOTION": 1.86227642,
        "ECCENTRICITY": 0.0007825,
        "INCLINATION": 54.1808,
        "RA_OF_ASC_NODE": 180.9038,
        "ARG_OF_PERICENTER": 29.8811,
        "MEAN_ANOMALY": 330.1852,
        "EPHEMERIS_TYPE": 0,
        "CLASSIFICATION_TYPE": "U",
        "NORAD_CAT_ID": 43602,
        "ELEMENT_SET_NO": 999,
        "REV_AT_EPOCH": 5319,
        "BSTAR": 0,
        "MEAN_MOTION_DOT": 7.9e-07,
        "MEAN_MOTION_DDOT": 0
    }
]